{"type": "FeatureCollection", "features": [{"type": "Feature", "properties": {"osm_id": 7894045, "admin_level": "9", "name": "Ward 17"}, "geometry": {"type": "Polygon", "coordinates": [[[76.7848321, 30.7276721], [76.7733528, 30.7205252], [76.7727506, 30.7212218], [76.7683301, 30.7263491], [76.7797155, 30.7334212], [76.7909706, 30.7404678], [76.7961092, 30.7346956], [76.7988307, 30.7319567], [76.8014016, 30.7290226], [76.8005919, 30.7285655], [76.790054, 30.7219709], [76.7848321, 30.7276721]]]}}, {"type": "Feature", "properties": {"osm_id": 7894498, "admin_level": "9", "name": "Ward 4"}, "geometry": {"type": "Polygon", "coordinates": [[[76.7742476, 30.7397398], [76.7739469, 30.7397033], [76.7734963, 30.7395488], [76.7629635, 30.7330002], [76.7517313, 30.7259207], [76.7470233, 30.731978], [76.7526823, 30.7355513], [76.7582122, 30.7389667], [76.7561325, 30.7417784], [76.753626, 30.7450896], [76.7645206, 30.7518465], [76.7692777, 30.7458255], [76.7742476, 30.7397398]]]}}, {"type": "Feature", "properties": {"osm_id": 7894500, "admin_level": "9", "name": "Ward 3"}, "geometry": {"type": "Polygon", "coordinates": [[[76.7742476, 30.7397398], [76.7692777, 30.7458255], [76.7805525, 30.7529044], [76.7856494, 30.7466288], [76.7909706, 30.7404678], [76.7797155, 30.7334212], [76.7683301, 30.7263491], [76.7678096, 30.7269855], [76.7650482, 30.7303835], [76.7629635, 30.7330002], [76.7734963, 30.7395488], [76.7739469, 30.7397033], [76.7742476, 30.7397398]]]}}, {"type": "Feature", "properties": {"osm_id": 7896598, "admin_level": "9", "name": "Ward 15"}, "geometry": {"type": "Polygon", "coordinates": [[[76.7517313, 30.7259207], [76.7571415, 30.7193483], [76.7458806, 30.7122332], [76.7508961, 30.7064343], [76.7621315, 30.7134936], [76.7733528, 30.7205252], [76.7727506, 30.7212218], [76.7683301, 30.7263491], [76.7678096, 30.7269855], [76.7650482, 30.7303835], [76.7629635, 30.7330002], [76.7517313, 30.7259207]]]}}]}