{"type": "FeatureCollection", "features": [{"type": "Feature", "properties": {"osm_id": 111984780, "landuse": "residential"}, "geometry": {"type": "Polygon", "coordinates": [[[76.7737204, 30.7391291], [76.7757861, 30.7366939], [76.7756435, 30.7366046], [76.7735778, 30.7390397], [76.7737204, 30.7391291]]]}}, {"type": "Feature", "properties": {"osm_id": 111984808, "landuse": "residential"}, "geometry": {"type": "Polygon", "coordinates": [[[76.7735223, 30.7390088], [76.775588, 30.7365737], [76.7754454, 30.7364843], [76.7733797, 30.7389195], [76.7735223, 30.7390088]]]}}, {"type": "Feature", "properties": {"osm_id": 129473473, "landuse": "residential"}, "geometry": {"type": "Polygon", "coordinates": [[[76.7673986, 30.7259271], [76.7661269, 30.7251089], [76.7635104, 30.7234388], [76.7630388, 30.7231377], [76.7629517, 30.7231282], [76.7625715, 30.7231002], [76.7623754, 30.7227787], [76.7575364, 30.71978], [76.7572916, 30.7197106], [76.7570725, 30.7197436], [76.7569274, 30.7198432], [76.7556495, 30.7214319], [76.7542688, 30.7230701], [76.7534521, 30.7240391], [76.7521968, 30.725636], [76.7521483, 30.7257772], [76.7521576, 30.7259877], [76.7523185, 30.72619], [76.755905, 30.7284395], [76.7572025, 30.7292273], [76.7575472, 30.7292691], [76.7577594, 30.7296211], [76.7616711, 30.7320453], [76.7624599, 30.7324975], [76.7626887, 30.7325088], [76.7629498, 30.7324481], [76.7631496, 30.732343], [76.7636561, 30.7318699], [76.7661893, 30.7287565], [76.7674386, 30.7272063], [76.7675833, 30.7270267], [76.7676061, 30.7268052], [76.7676097, 30.7265005], [76.7675747, 30.7261737], [76.7673986, 30.7259271]]]}}, {"type": "Feature", "properties": {"osm_id": 129776263, "landuse": "commercial"}, "geometry": {"type": "Polygon", "coordinates": [[[76.7835166, 30.7359177], [76.7802578, 30.7339038], [76.779983, 30.7338448], [76.7797897, 30.7338345], [76.7795271, 30.7339258], [76.7792458, 30.7341273], [76.7765945, 30.7372064], [76.7748696, 30.7392373], [76.7748181, 30.7393434], [76.7747993, 30.7395141], [76.7748446, 30.7397102], [76.7749916, 30.739866], [76.7774387, 30.7413395], [76.7800899, 30.7430226], [76.7826358, 30.7445972], [76.7850292, 30.7461106], [76.7853687, 30.7461337], [76.7857521, 30.7460875], [76.7860794, 30.7459364], [76.7864775, 30.7455103], [76.7901308, 30.7412577], [76.7903066, 30.7407119], [76.7901625, 30.7400696], [76.7835166, 30.7359177]]]}}, {"type": "Feature", "properties": {"osm_id": 552734918, "landuse": "residential"}, "geometry": {"type": "Polygon", "coordinates": [[[76.7693225, 30.7267414], [76.7692263, 30.7266091], [76.769176, 30.7262792], [76.7691852, 30.7258628], [76.7692629, 30.7256153], [76.7730264, 30.7212071], [76.7737575, 30.7210688], [76.7740536, 30.7211128], [76.7787365, 30.7240448], [76.784275, 30.7275102], [76.7843709, 30.7277262], [76.7843435, 30.7279226], [76.7824427, 30.730093], [76.7802185, 30.7326327], [76.779916, 30.7327529], [76.7795093, 30.7328747], [76.7791528, 30.7327883], [76.7693225, 30.7267414]]]}}, {"type": "Feature", "properties": {"osm_id": 552734928, "landuse": "residential"}, "geometry": {"type": "Polygon", "coordinates": [[[76.7687857, 30.7364501], [76.764048, 30.7335642], [76.7637207, 30.7333209], [76.7635791, 30.7329292], [76.7635835, 30.7326212], [76.7636897, 30.7323361], [76.7654415, 30.7301459], [76.7677948, 30.727294], [76.7681797, 30.7270316], [76.768569, 30.7269517], [76.7688521, 30.7269327], [76.7691042, 30.7269822], [76.7698518, 30.7274156], [76.774125, 30.7301078], [76.7785177, 30.732819], [76.7790043, 30.7331155], [76.7791547, 30.7334996], [76.7791016, 30.733876], [76.7773056, 30.7359901], [76.7746072, 30.7390736], [76.7742489, 30.7392105], [76.7737534, 30.739336], [76.7734217, 30.7393284], [76.7687857, 30.7364501]]]}}, {"type": "Feature", "properties": {"osm_id": 552741511, "landuse": "residential"}, "geometry": {"type": "Polygon", "coordinates": [[[76.7589215, 30.7384901], [76.7603514, 30.7365526], [76.7626764, 30.7335808], [76.7630515, 30.7334591], [76.7633913, 30.733453], [76.7666471, 30.7354637], [76.7705292, 30.7378819], [76.7734137, 30.7397036], [76.7735666, 30.7398423], [76.7736741, 30.7399785], [76.7736911, 30.7401051], [76.7735637, 30.7404141], [76.7728939, 30.7412638], [76.7715068, 30.743007], [76.7713027, 30.7431655], [76.7712278, 30.7433365], [76.7695535, 30.7453701], [76.7689238, 30.745483], [76.7681379, 30.7452397], [76.7677642, 30.7452222], [76.766668, 30.7451521], [76.7656647, 30.7449749], [76.7648176, 30.7447102], [76.7640181, 30.7443384], [76.7633522, 30.7439608], [76.7630019, 30.7437278], [76.7623365, 30.7431256], [76.7610059, 30.7417842], [76.7587835, 30.7394574], [76.758695, 30.7390589], [76.7587375, 30.7388034], [76.7589215, 30.7384901]]]}}]}