{"type": "FeatureCollection", "features": [{"type": "Feature", "properties": {"osm_id": 129464140, "leisure": "garden"}, "geometry": {"type": "Polygon", "coordinates": [[[76.7684476, 30.7260597], [76.768363, 30.7260562], [76.7683031, 30.7260646], [76.7682711, 30.726073], [76.7682522, 30.7260794], [76.7682096, 30.7260981], [76.7681826, 30.7261136], [76.7681678, 30.7261235], [76.7681096, 30.7261761], [76.7680722, 30.7262306], [76.7680589, 30.7262598], [76.7680492, 30.72629], [76.768042, 30.7263321], [76.7680461, 30.7264054], [76.7680646, 30.7264628], [76.7680896, 30.7265069], [76.7681179, 30.7265419], [76.7681404, 30.7265637], [76.7682191, 30.7266155], [76.7683019, 30.726644], [76.7683565, 30.7266522], [76.7684272, 30.7266517], [76.7684874, 30.7266412], [76.7685258, 30.7266293], [76.7685732, 30.7266081], [76.76862, 30.726578], [76.7686947, 30.7264969], [76.7687114, 30.7264665], [76.7687242, 30.7264341], [76.7687368, 30.7263537], [76.7687288, 30.726291], [76.7687065, 30.7262325], [76.7686703, 30.7261786], [76.7686395, 30.726147], [76.7685598, 30.7260939], [76.7684476, 30.7260597]]]}}, {"type": "Feature", "properties": {"osm_id": 129473893, "leisure": "park", "name": "Topiary Garden"}, "geometry": {"type": "Polygon", "coordinates": [[[76.7599455, 30.7256735], [76.7595282, 30.7261668], [76.7625692, 30.7280673], [76.7629865, 30.7275739], [76.7599455, 30.7256735]]]}}, {"type": "Feature", "properties": {"osm_id": 129473902, "leisure": "garden"}, "geometry": {"type": "Polygon", "coordinates": [[[76.7631912, 30.7329423], [76.7631658, 30.7328989], [76.7631123, 30.7328471], [76.7630376, 30.7328131], [76.7629415, 30.7328054], [76.7628665, 30.7328243], [76.7627865, 30.7328797], [76.7627505, 30.732935], [76.7627385, 30.732977], [76.762738, 30.7330265], [76.7627659, 30.7331006], [76.7628243, 30.7331596], [76.7629067, 30.7331956], [76.7629442, 30.7332016], [76.762995, 30.7332014], [76.7630421, 30.7331923], [76.7630899, 30.7331731], [76.76315, 30.7331272], [76.7631941, 30.7330489], [76.7631912, 30.7329423]]]}}, {"type": "Feature", "properties": {"osm_id": 129473906, "leisure": "park"}, "geometry": {"type": "Polygon", "coordinates": [[[76.7631557, 30.7276677], [76.7629299, 30.727947], [76.7644765, 30.728871], [76.7647024, 30.7285917], [76.7631557, 30.7276677]]]}}, {"type": "Feature", "properties": {"osm_id": 129473907, "leisure": "park"}, "geometry": {"type": "Polygon", "coordinates": [[[76.7648075, 30.7286504], [76.7645984, 30.7289101], [76.7653628, 30.7293647], [76.7655718, 30.729105], [76.7648075, 30.7286504]]]}}, {"type": "Feature", "properties": {"osm_id": 129473926, "leisure": "park"}, "geometry": {"type": "Polygon", "coordinates": [[[76.7630661, 30.7290345], [76.7622353, 30.7299903], [76.7625249, 30.7301763], [76.7633557, 30.7292204], [76.7630661, 30.7290345]]]}}, {"type": "Feature", "properties": {"osm_id": 129476933, "leisure": "garden"}, "geometry": {"type": "Polygon", "coordinates": [[[76.7746453, 30.7398837], [76.7746594, 30.7397342], [76.7746119, 30.7396078], [76.7744999, 30.7394943], [76.7743612, 30.739433], [76.774195, 30.7394202], [76.7740402, 30.7394618], [76.7739159, 30.7395497], [76.7738369, 30.7396772], [76.7738206, 30.7398076], [76.7738703, 30.7399531], [76.7739777, 30.7400635], [76.774121, 30.7401279], [76.7743017, 30.7401392], [76.774442, 30.7400991], [76.7745498, 30.7400274], [76.7746453, 30.7398837]]]}}, {"type": "Feature", "properties": {"osm_id": 129537956, "leisure": "park"}, "geometry": {"type": "Polygon", "coordinates": [[[76.7716988, 30.739979], [76.7719626, 30.7396586], [76.7721415, 30.7397674], [76.7718777, 30.7400879], [76.7716988, 30.739979]]]}}, {"type": "Feature", "properties": {"osm_id": 129537957, "leisure": "park"}, "geometry": {"type": "Polygon", "coordinates": [[[76.7629342, 30.7387931], [76.7633033, 30.7390194], [76.7635474, 30.7387252], [76.7631782, 30.7384989], [76.7629342, 30.7387931]]]}}, {"type": "Feature", "properties": {"osm_id": 129537958, "leisure": "park"}, "geometry": {"type": "Polygon", "coordinates": [[[76.768948, 30.7395066], [76.7692119, 30.7391862], [76.7693908, 30.739295], [76.7691269, 30.7396155], [76.768948, 30.7395066]]]}}, {"type": "Feature", "properties": {"osm_id": 129537959, "leisure": "park"}, "geometry": {"type": "Polygon", "coordinates": [[[76.7696728, 30.7387012], [76.7699366, 30.7383807], [76.7701155, 30.7384896], [76.7698517, 30.73881], [76.7696728, 30.7387012]]]}}, {"type": "Feature", "properties": {"osm_id": 129537964, "leisure": "park"}, "geometry": {"type": "Polygon", "coordinates": [[[76.7658739, 30.7360827], [76.7664737, 30.7364484], [76.7665624, 30.7363409], [76.7659626, 30.7359752], [76.7658739, 30.7360827]]]}}, {"type": "Feature", "properties": {"osm_id": 129537965, "leisure": "park"}, "geometry": {"type": "Polygon", "coordinates": [[[76.7693925, 30.7379639], [76.7696564, 30.7376434], [76.769807, 30.7377255], [76.7695374, 30.7380508], [76.7693925, 30.7379639]]]}}, {"type": "Feature", "properties": {"osm_id": 129537966, "leisure": "park"}, "geometry": {"type": "Polygon", "coordinates": [[[76.7653818, 30.7387055], [76.7655249, 30.7385327], [76.765909, 30.7387585], [76.7659272, 30.738894], [76.7658511, 30.7389936], [76.7653818, 30.7387055]]]}}, {"type": "Feature", "properties": {"osm_id": 129545140, "leisure": "park", "name": "Moonlight Park"}, "geometry": {"type": "Polygon", "coordinates": [[[76.7670986, 30.7308001], [76.7669649, 30.7309734], [76.7681902, 30.7317716], [76.7686319, 30.7320374], [76.7674872, 30.7334753], [76.768254, 30.7332909], [76.7687555, 30.7331538], [76.7681945, 30.7328124], [76.7683351, 30.7326455], [76.768483, 30.7327227], [76.7688924, 30.7321941], [76.7692525, 30.7317677], [76.7698572, 30.7321318], [76.770317, 30.7315692], [76.7683986, 30.7316334], [76.7670986, 30.7308001]]]}}, {"type": "Feature", "properties": {"osm_id": 129545141, "leisure": "garden"}, "geometry": {"type": "Polygon", "coordinates": [[[76.7799354, 30.7333542], [76.77991, 30.7333108], [76.7798565, 30.733259], [76.7797818, 30.733225], [76.7796857, 30.7332173], [76.7796107, 30.7332362], [76.7795307, 30.7332916], [76.7794947, 30.7333469], [76.7794827, 30.7333889], [76.7794822, 30.7334384], [76.7795101, 30.7335125], [76.7795685, 30.7335715], [76.7796509, 30.7336075], [76.7796884, 30.7336135], [76.7797392, 30.7336133], [76.7797863, 30.7336042], [76.7798341, 30.733585], [76.7798942, 30.7335391], [76.7799383, 30.7334608], [76.7799354, 30.7333542]]]}}, {"type": "Feature", "properties": {"osm_id": 129545142, "leisure": "park"}, "geometry": {"type": "Polygon", "coordinates": [[[76.7682976, 30.7286933], [76.7687959, 30.7280994], [76.7697313, 30.7286835], [76.7682976, 30.7286933]]]}}, {"type": "Feature", "properties": {"osm_id": 129545143, "leisure": "park"}, "geometry": {"type": "Polygon", "coordinates": [[[76.7656824, 30.7338806], [76.7659184, 30.733593], [76.7662289, 30.7337813], [76.7659928, 30.7340689], [76.7656824, 30.7338806]]]}}, {"type": "Feature", "properties": {"osm_id": 129545144, "leisure": "park"}, "geometry": {"type": "Polygon", "coordinates": [[[76.7757613, 30.7345127], [76.7754769, 30.7348427], [76.7757467, 30.7350145], [76.7760311, 30.7346845], [76.7757613, 30.7345127]]]}}, {"type": "Feature", "properties": {"osm_id": 129545145, "leisure": "park"}, "geometry": {"type": "Polygon", "coordinates": [[[76.7698576, 30.7301144], [76.7707284, 30.7300911], [76.7707237, 30.7299616], [76.7698529, 30.7299848], [76.7698576, 30.7301144]]]}}, {"type": "Feature", "properties": {"osm_id": 129545146, "leisure": "park"}, "geometry": {"type": "Polygon", "coordinates": [[[76.7663875, 30.7300995], [76.7661601, 30.7303938], [76.7665298, 30.7306049], [76.7667572, 30.7303105], [76.7663875, 30.7300995]]]}}, {"type": "Feature", "properties": {"osm_id": 129545147, "leisure": "park"}, "geometry": {"type": "Polygon", "coordinates": [[[76.7705121, 30.7366311], [76.7702278, 30.7369612], [76.7704975, 30.7371329], [76.7707819, 30.7368029], [76.7705121, 30.7366311]]]}}, {"type": "Feature", "properties": {"osm_id": 129545148, "leisure": "park"}, "geometry": {"type": "Polygon", "coordinates": [[[76.7760881, 30.7341259], [76.7758038, 30.7344559], [76.7760736, 30.7346276], [76.7763579, 30.7342976], [76.7760881, 30.7341259]]]}}, {"type": "Feature", "properties": {"osm_id": 129545149, "leisure": "park"}, "geometry": {"type": "Polygon", "coordinates": [[[76.7757131, 30.7325264], [76.7754449, 30.7328535], [76.7757602, 30.7329205], [76.7759631, 30.7326744], [76.7757131, 30.7325264]]]}}, {"type": "Feature", "properties": {"osm_id": 129545150, "leisure": "park"}, "geometry": {"type": "Polygon", "coordinates": [[[76.7698988, 30.7361673], [76.7704234, 30.7364935], [76.7705635, 30.7363271], [76.7700389, 30.7360009], [76.7698988, 30.7361673]]]}}, {"type": "Feature", "properties": {"osm_id": 129545151, "leisure": "park"}, "geometry": {"type": "Polygon", "coordinates": [[[76.7704382, 30.7355339], [76.7709722, 30.7358617], [76.7710939, 30.7357151], [76.7705599, 30.7353874], [76.7704382, 30.7355339]]]}}, {"type": "Feature", "properties": {"osm_id": 129545152, "leisure": "park"}, "geometry": {"type": "Polygon", "coordinates": [[[76.7709224, 30.7363634], [76.771347, 30.7358612], [76.7715157, 30.7359665], [76.771091, 30.7364688], [76.7709224, 30.7363634]]]}}, {"type": "Feature", "properties": {"osm_id": 129545153, "leisure": "park"}, "geometry": {"type": "Polygon", "coordinates": [[[76.7664535, 30.7300201], [76.7668381, 30.7302445], [76.767002, 30.7300371], [76.7666173, 30.7298127], [76.7664535, 30.7300201]]]}}, {"type": "Feature", "properties": {"osm_id": 129545154, "leisure": "park"}, "geometry": {"type": "Polygon", "coordinates": [[[76.7727056, 30.7378003], [76.7724212, 30.7381303], [76.772691, 30.738302], [76.7729753, 30.737972], [76.7727056, 30.7378003]]]}}, {"type": "Feature", "properties": {"osm_id": 129545156, "leisure": "park"}, "geometry": {"type": "Polygon", "coordinates": [[[76.7754558, 30.733084], [76.7754721, 30.7329547], [76.7759088, 30.7330778], [76.7768763, 30.7336447], [76.7767078, 30.7338409], [76.7754558, 30.733084]]]}}, {"type": "Feature", "properties": {"osm_id": 129545158, "leisure": "park"}, "geometry": {"type": "Polygon", "coordinates": [[[76.7725819, 30.734186], [76.7731549, 30.7335046], [76.7722467, 30.7329439], [76.7720292, 30.7333274], [76.7718571, 30.7335533], [76.7717507, 30.733672], [76.7725819, 30.734186]]]}}, {"type": "Feature", "properties": {"osm_id": 129545161, "leisure": "park"}, "geometry": {"type": "Polygon", "coordinates": [[[76.7687024, 30.7303198], [76.7687001, 30.7299869], [76.7697058, 30.7299791], [76.7697103, 30.7301562], [76.7695608, 30.7301621], [76.7695631, 30.7303334], [76.7687024, 30.7303198]]]}}, {"type": "Feature", "properties": {"osm_id": 129545162, "leisure": "park"}, "geometry": {"type": "Polygon", "coordinates": [[[76.7769633, 30.7337039], [76.7767785, 30.7339297], [76.7771989, 30.7342038], [76.777255, 30.734101], [76.7772369, 30.7339951], [76.7771753, 30.733897], [76.7770974, 30.7338129], [76.7769633, 30.7337039]]]}}, {"type": "Feature", "properties": {"osm_id": 129545164, "leisure": "park"}, "geometry": {"type": "Polygon", "coordinates": [[[76.7732935, 30.7326101], [76.7746839, 30.7334753], [76.7751083, 30.7330008], [76.7750086, 30.732947], [76.7743314, 30.7330247], [76.7741829, 30.7330157], [76.7740484, 30.7329749], [76.7739243, 30.7329001], [76.7733399, 30.7325532], [76.7732935, 30.7326101]]]}}, {"type": "Feature", "properties": {"osm_id": 129553511, "leisure": "park", "name": "City Bird Sanctuary"}, "geometry": {"type": "Polygon", "coordinates": [[[76.7783219, 30.7286791], [76.7786557, 30.7288706], [76.7798765, 30.7295708], [76.7800609, 30.7293445], [76.7805546, 30.7296358], [76.7807692, 30.7293766], [76.7808325, 30.7293002], [76.7802565, 30.7289692], [76.7806464, 30.7284884], [76.7809886, 30.7286984], [76.7810622, 30.7285976], [76.7807254, 30.7283881], [76.7800604, 30.7279808], [76.7800255, 30.728346], [76.7798354, 30.7284969], [76.7783219, 30.7286791]]]}}, {"type": "Feature", "properties": {"osm_id": 129553512, "leisure": "park"}, "geometry": {"type": "Polygon", "coordinates": [[[76.7720537, 30.7249996], [76.7723854, 30.724598], [76.7735936, 30.7253355], [76.7737268, 30.7251742], [76.7744609, 30.7256222], [76.7748549, 30.7251452], [76.7754139, 30.7254864], [76.7751123, 30.7258515], [76.7764859, 30.7266898], [76.7762637, 30.7269588], [76.7737319, 30.7254136], [76.7732234, 30.7260293], [76.7729362, 30.725854], [76.7731096, 30.725644], [76.7720537, 30.7249996]]]}}, {"type": "Feature", "properties": {"osm_id": 129553517, "leisure": "park"}, "geometry": {"type": "Polygon", "coordinates": [[[76.7728036, 30.7275455], [76.7724361, 30.7279832], [76.7727075, 30.7281515], [76.773075, 30.7277139], [76.7728036, 30.7275455]]]}}, {"type": "Feature", "properties": {"osm_id": 129553519, "leisure": "park"}, "geometry": {"type": "Polygon", "coordinates": [[[76.7763329, 30.7291207], [76.7766713, 30.7286985], [76.7772674, 30.72905], [76.7776713, 30.7286135], [76.7779894, 30.7288066], [76.7781766, 30.7286172], [76.7786299, 30.7288903], [76.777664, 30.7299828], [76.7763329, 30.7291207]]]}}, {"type": "Feature", "properties": {"osm_id": 129553520, "leisure": "park"}, "geometry": {"type": "Polygon", "coordinates": [[[76.7769096, 30.7309589], [76.7774771, 30.7313094], [76.7776305, 30.7311258], [76.777063, 30.7307754], [76.7769096, 30.7309589]]]}}, {"type": "Feature", "properties": {"osm_id": 129553523, "leisure": "park"}, "geometry": {"type": "Polygon", "coordinates": [[[76.772397, 30.7265089], [76.7720342, 30.7269524], [76.7723315, 30.7271321], [76.7726942, 30.7266886], [76.772397, 30.7265089]]]}}, {"type": "Feature", "properties": {"osm_id": 129553529, "leisure": "park"}, "geometry": {"type": "Polygon", "coordinates": [[[76.7728795, 30.7259315], [76.7724743, 30.7264256], [76.7727623, 30.7266002], [76.7731676, 30.7261061], [76.7728795, 30.7259315]]]}}, {"type": "Feature", "properties": {"osm_id": 129774486, "leisure": "park"}, "geometry": {"type": "Polygon", "coordinates": [[[76.779055, 30.7377872], [76.7802962, 30.738567], [76.7809672, 30.737778], [76.7797259, 30.7369982], [76.779055, 30.7377872]]]}}, {"type": "Feature", "properties": {"osm_id": 129774504, "leisure": "park"}, "geometry": {"type": "Polygon", "coordinates": [[[76.7790146, 30.7396562], [76.7793837, 30.7398823], [76.7795394, 30.7396946], [76.7791703, 30.7394685], [76.7790146, 30.7396562]]]}}, {"type": "Feature", "properties": {"osm_id": 129774509, "leisure": "park", "name": "Parade Ground"}, "geometry": {"type": "Polygon", "coordinates": [[[76.7769222, 30.7371087], [76.7755767, 30.7387083], [76.7765053, 30.7392853], [76.7778508, 30.7376858], [76.7769222, 30.7371087]]]}}, {"type": "Feature", "properties": {"osm_id": 1360756875, "leisure": "park", "name": "PUBLIC PARK"}, "geometry": {"type": "Polygon", "coordinates": [[[76.7683362, 30.7340378], [76.7689489, 30.7344035], [76.7691176, 30.7341935], [76.7685039, 30.7338311], [76.7683362, 30.7340378]]]}}, {"type": "Feature", "properties": {"osm_id": 1360757238, "leisure": "park"}, "geometry": {"type": "Polygon", "coordinates": [[[76.7685813, 30.7338298], [76.7687803, 30.7339254], [76.7690614, 30.7335777], [76.7688727, 30.7334653], [76.7685813, 30.7338298]]]}}, {"type": "Feature", "properties": {"osm_id": 1360757325, "leisure": "park"}, "geometry": {"type": "Polygon", "coordinates": [[[76.7667172, 30.7322984], [76.7670067, 30.7324787], [76.7675986, 30.7317407], [76.7673027, 30.7315617], [76.7667172, 30.7322984]]]}}]}